#aV2024 11  2  0  0  0.00000000     288 DD+AD WGS84 FIT  NGA
## 2338 518400.00000000   300.00000000 60616 0.0000000000000
+   31     2  3  4  5  6  7  8  9 10 11 12 13 14 15 16 17 18
+         19 20 21 22 23 24 25 26 27 28 29 30 31 32  0  0  0
+          0  0  0  0  0  0  0  0  0  0  0  0  0  0  0  0  0
+          0  0  0  0  0  0  0  0  0  0  0  0  0  0  0  0  0
+          0  0  0  0  0  0  0  0  0  0  0  0  0  0  0  0  0
++         2  2  2  2  2  2  2  2  2  2  2  2  2  2  2  2  2
++         2  2  2  2  2  2  2  2  2  2  2  2  2  2  0  0  0
++         0  0  0  0  0  0  0  0  0  0  0  0  0  0  0  0  0
++         0  0  0  0  0  0  0  0  0  0  0  0  0  0  0  0  0
++         0  0  0  0  0  0  0  0  0  0  0  0  0  0  0  0  0
%c cc cc ccc ccc cccc cccc cccc cccc ccccc ccccc ccccc ccccc
%c cc cc ccc ccc cccc cccc cccc cccc ccccc ccccc ccccc ccccc
%f  0.0000000  0.000000000  0.00000000000  0.000000000000000
%f  0.0000000  0.000000000  0.00000000000  0.000000000000000
%i    0    0    0    0      0      0      0      0         0
%i    0    0    0    0      0      0      0      0         0
/*      NGA, ST. LOUIS,MO.                                  
/*   EPHEMERIS COMPUTED FROM 2 DAYS OF DATA                 
/*   EPOCHA v9 SMOOTHER                                     
/*   G2296 IERS2010 SATIGS SATAPC                           
*  2024 11  2 16 20  0.00000000
P  2 -18187.452369  -5815.968458  19078.517092   -323.476464                    
V  2 -10183.619069 -20766.186964 -16104.684748      0.084423                    
P  3 -19115.840217   7283.241919  16713.859680    588.708110                    
V  3  11666.812578 -18145.985491  21147.168526      0.109676                    
P  4 -26135.642637   -160.074808  -5147.027671    472.611342                    
V  4  -6104.017327  -3374.447568  30870.552542      0.066064                    
P  5  12351.696436   8533.182160 -22089.298189   -191.755668                    
V  5 -15235.705935  22983.810829    424.479230     -0.011943                    
P  6   4071.340994  24670.982353   8861.196655    -84.352473                    
V  6  -6001.179376  -9573.562252  29752.802257     -0.285595                    
P  7 -11095.801212  11419.193949 -20655.880786    -22.760595                    
V  7 -12068.463153 -24825.573372  -7507.845968      0.027103                    
P  8 -25080.736012  -6640.041042  -6807.604524    402.508379                    
V  8   8559.489082  -2005.755810 -29663.688039      0.107730                    
P  9 -21463.818979   7855.517143 -13676.384566    425.923222                    
V  9 -16955.230425  -3562.204757  24668.171777      0.168326                    
P 10   8390.101441 -22902.103277  10304.181723   -180.914491                    
V 10   9192.456717  -9175.483972 -28815.829661     -0.140169                    
P 11  12642.959496  22812.598427  -5155.775552   -748.070337                    
V 11     11.442008   7048.202979  30932.363329     -0.021478                    
P 12  18660.046094  -2159.425062  18475.162844   -549.395946                    
V 12 -14315.547744  19403.002371  16518.689442     -0.025755                    
P 13  19270.963133  13746.031980 -12516.624740    684.306950                    
V 13 -15380.879377  -2077.278587 -26224.520850      0.016846                    
P 14 -11647.204738  22863.415251   6422.581269    531.179484                    
V 14  -7620.714631   4453.699344 -30113.250283      0.082906                    
P 15  25567.238638   3837.111823  -6947.556222    223.048074                    
V 15  -7972.786569   3582.072595 -29448.910538      0.045040                    
P 16  -8284.507988 -13470.403555 -21626.044325   -138.709564                    
V 16  18073.901088 -19689.358075   5871.354250      0.098728                    
P 17  -6838.434961  14151.257595  21850.083241    573.559249                    
V 17 -26292.490367  -4754.580431  -5066.014085     -0.138968                    
P 18   9781.815747 -13191.458564 -20796.252603   -659.683055                    
V 18  11039.783521  24090.132215 -10294.867114     -0.007787                    
P 19   4815.567204  15745.911470  20783.499200    558.025888                    
V 19 -26149.908931  -4986.962038   9349.746073      0.045420                    
P 20   5087.890469  18755.535915 -18092.631959    369.098259                    
V 20 -11495.008638  20086.186077  17370.637663     -0.003396                    
P 21 -18970.028336 -12370.729575  15093.643605     98.389191                    
V 21  -7716.741188 -16369.720769 -22682.107487     -0.008501                    
P 22  -6208.424147  22032.409249  14128.051479    -76.261024                    
V 22 -12701.911840  11667.270127 -24173.428389     -0.030749                    
P 23  16649.633718 -20266.110917  -3266.433736    354.858553                    
V 23   -480.853838   4783.213419 -32010.131447      0.080409                    
P 24  18786.486300   8143.907363  16669.546272   -482.314853                    
V 24   8962.626076  20176.142391 -19023.780551      0.017929                    
P 25  19150.506675 -15163.637458   9750.507143    499.255325                    
V 25  -4909.028489  12418.135993  28222.948284     -0.002066                    
P 26   -254.413177 -21604.520179 -15361.912496     39.777344                    
V 26  12507.062305 -15157.916356  21732.161175     -0.121512                    
P 27 -17618.784609 -12833.759213 -15763.084515    -34.740990                    
V 27  19379.553581    271.541417 -21881.646466     -0.000197                    
P 28  -3314.894469 -24101.429942  10640.243176   -466.318805                    
V 28   8062.902314  11143.206999  27715.933760     -0.122206                    
P 29  22804.342884  -4795.800513 -12901.880407   -566.784226                    
V 29  15622.348433   4901.547979  25750.996559      0.028297                    
P 30  -3366.843269  20933.852992 -15685.167121   -290.039661                    
V 30 -10687.584510 -17538.847310 -21182.650807      0.076685                    
P 31 -10519.977180 -24159.865473   -637.707633   -222.427104                    
V 31   2891.384415  -1777.039196  31841.299115      0.006206                    
P 32   3010.674706 -15025.582205  21904.126851   -579.073233                    
V 32  27142.888152   2895.510034  -1963.909242      0.049458                    
EOF
